{"type": "FeatureCollection", "features": [ {"type": "Feature", "properties": {"norad_id": 66614, "name": "STARLINK-36040", "group": "last-30-days", "lat": 39.129472515732, "lon": -156.80331297208812, "alt_km": 438.9512589444412, "timestamp": "2025-12-21T09:37:21.370492+00:00", "meta": {"OBJECT_NAME": "STARLINK-36040", "OBJECT_ID": "2025-270AC", "EPOCH": "2025-12-21T00:00:02.000160", "MEAN_MOTION": 15.40692599, "ECCENTRICITY": 0.0001997, "INCLINATION": 43, "RA_OF_ASC_NODE": 144.6954, "ARG_OF_PERICENTER": 275.5423, "MEAN_ANOMALY": 85.8984, "EPHEMERIS_TYPE": 0, "CLASSIFICATION_TYPE": "U", "NORAD_CAT_ID": 66614, "ELEMENT_SET_NO": 999, "REV_AT_EPOCH": 557, "BSTAR": 0.00059715, "MEAN_MOTION_DOT": 0.00024716, "MEAN_MOTION_DDOT": 0}, "tle": {"line1": "1 66614U 25270AC  25355.00002315  .00024716  00000+0  59715-3 0  9999", "line2": "2 66614  43.0000 144.6954 0001997 275.5423  85.8984 15.40692599  5578"}}, "geometry": {"type": "Point", "coordinates": [-156.80331297208812, 39.129472515732]}}, {"type": "Feature", "properties": {"norad_id": 66615, "name": "STARLINK-35988", "group": "last-30-days", "lat": -4.659133356827277, "lon": 137.54880804802826, "alt_km": 443.7155803554624, "timestamp": "2025-12-21T09:37:21.370502+00:00", "meta": {"OBJECT_NAME": "STARLINK-35988", "OBJECT_ID": "2025-270AD", "EPOCH": "2025-12-20T19:38:57.992928", "MEAN_MOTION": 15.4070333, "ECCENTRICITY": 0.00018631, "INCLINATION": 43.0001, "RA_OF_ASC_NODE": 145.9221, "ARG_OF_PERICENTER": 284.8936, "MEAN_ANOMALY": 75.1714, "EPHEMERIS_TYPE": 0, "CLASSIFICATION_TYPE": "U", "NORAD_CAT_ID": 66615, "ELEMENT_SET_NO": 999, "REV_AT_EPOCH": 543, "BSTAR": 0.00091861833, "MEAN_MOTION_DOT": 0.00038267, "MEAN_MOTION_DDOT": 0}, "tle": {"line1": "1 66615U 25270AD  25354.81872677  .00038267  00000+0  91862-3 0  9999", "line2": "2 66615  43.0001 145.9221 0001863 284.8936  75.1714 15.40703330  5439"}}, "geometry": {"type": "Point", "coordinates": [137.54880804802826, -4.659133356827277]}}, {"type": "Feature", "properties": {"norad_id": 66616, "name": "STARLINK-35391", "group": "last-30-days", "lat": 42.921962283586424, "lon": -124.02515192530404, "alt_km": 438.173808199178, "timestamp": "2025-12-21T09:37:21.370515+00:00", "meta": {"OBJECT_NAME": "STARLINK-35391", "OBJECT_ID": "2025-270AE", "EPOCH": "2025-12-21T04:00:01.998720", "MEAN_MOTION": 15.40700066, "ECCENTRICITY": 0.0001366, "INCLINATION": 43.0003, "RA_OF_ASC_NODE": 143.6736, "ARG_OF_PERICENTER": 272.9752, "MEAN_ANOMALY": 318.868, "EPHEMERIS_TYPE": 0, "CLASSIFICATION_TYPE": "U", "NORAD_CAT_ID": 66616, "ELEMENT_SET_NO": 999, "REV_AT_EPOCH": 586, "BSTAR": -0.00020997, "MEAN_MOTION_DOT": -9.064e-05, "MEAN_MOTION_DDOT": 0}, "tle": {"line1": "1 66616U 25270AE  25355.16668980 -.00009064  00000+0 -20997-3 0  9995", "line2": "2 66616  43.0003 143.6736 0001366 272.9752 318.8680 15.40700066  5869"}}, "geometry": {"type": "Point", "coordinates": [-124.02515192530404, 42.921962283586424]}}, {"type": "Feature", "properties": {"norad_id": 66617, "name": "STARLINK-35940", "group": "last-30-days", "lat": -33.01393012163717, "lon": 117.11960546998858, "alt_km": 451.880554953701, "timestamp": "2025-12-21T09:37:21.370527+00:00", "meta": {"OBJECT_NAME": "STARLINK-35940", "OBJECT_ID": "2025-271A", "EPOCH": "2025-12-21T03:34:36.381216", "MEAN_MOTION": 15.3963632, "ECCENTRICITY": 0.0001607, "INCLINATION": 53.1602, "RA_OF_ASC_NODE": 147.4589, "ARG_OF_PERICENTER": 88.6329, "MEAN_ANOMALY": 271.486, "EPHEMERIS_TYPE": 0, "CLASSIFICATION_TYPE": "U", "NORAD_CAT_ID": 66617, "ELEMENT_SET_NO": 999, "REV_AT_EPOCH": 550, "BSTAR": 0.0010329, "MEAN_MOTION_DOT": 0.0004116, "MEAN_MOTION_DDOT": 0}, "tle": {"line1": "1 66617U 25271A   25355.14903219  .00041160  00000+0  10329-2 0  9990", "line2": "2 66617  53.1602 147.4589 0001607  88.6329 271.4860 15.39636320  5509"}}, "geometry": {"type": "Point", "coordinates": [117.11960546998858, -33.01393012163717]}}, {"type": "Feature", "properties": {"norad_id": 66618, "name": "STARLINK-35970", "group": "last-30-days", "lat": -27.682106234643946, "lon": -11.087951101769818, "alt_km": 435.01318680962504, "timestamp": "2025-12-21T09:37:21.370553+00:00", "meta": {"OBJECT_NAME": "STARLINK-35970", "OBJECT_ID": "2025-271B", "EPOCH": "2025-12-19T22:33:37.423008", "MEAN_MOTION": 15.46560751, "ECCENTRICITY": 0.0001439, "INCLINATION": 53.1597, "RA_OF_ASC_NODE": 152.703, "ARG_OF_PERICENTER": 41.703, "MEAN_ANOMALY": 318.4087, "EPHEMERIS_TYPE": 0, "CLASSIFICATION_TYPE": "U", "NORAD_CAT_ID": 66618, "ELEMENT_SET_NO": 999, "REV_AT_EPOCH": 532, "BSTAR": -0.0083391, "MEAN_MOTION_DOT": -0.0040083, "MEAN_MOTION_DDOT": 0}, "tle": {"line1": "1 66618U 25271B   25353.94001647 -.00400830  00000+0 -83391-2 0  9995", "line2": "2 66618  53.1597 152.7030 0001439  41.7030 318.4087 15.46560751  5320"}}, "geometry": {"type": "Point", "coordinates": [-11.087951101769818, -27.682106234643946]}}, {"type": "Feature", "properties": {"norad_id": 66619, "name": "STARLINK-35951", "group": "last-30-days", "lat": 8.072277824860349, "lon": -40.2562398150906, "alt_km": 431.57236057889895, "timestamp": "2025-12-21T09:37:21.370564+00:00", "meta": {"OBJECT_NAME": "STARLINK-35951", "OBJECT_ID": "2025-271C", "EPOCH": "2025-12-19T22:45:25.750080", "MEAN_MOTION": 15.46545275, "ECCENTRICITY": 0.0002872, "INCLINATION": 53.1623, "RA_OF_ASC_NODE": 152.7597, "ARG_OF_PERICENTER": 23.3692, "MEAN_ANOMALY": 336.7446, "EPHEMERIS_TYPE": 0, "CLASSIFICATION_TYPE": "U", "NORAD_CAT_ID": 66619, "ELEMENT_SET_NO": 999, "REV_AT_EPOCH": 532, "BSTAR": -0.0081194, "MEAN_MOTION_DOT": -0.0039068, "MEAN_MOTION_DDOT": 0}, "tle": {"line1": "1 66619U 25271C   25353.94821470 -.00390680  00000+0 -81194-2 0  9990", "line2": "2 66619  53.1623 152.7597 0002872  23.3692 336.7446 15.46545275  5327"}}, "geometry": {"type": "Point", "coordinates": [-40.2562398150906, 8.072277824860349]}}, {"type": "Feature", "properties": {"norad_id": 66620, "name": "STARLINK-35936", "group": "last-30-days", "lat": 21.279442183744663, "lon": -51.09660024650131, "alt_km": 431.86656578911516, "timestamp": "2025-12-21T09:37:21.370575+00:00", "meta": {"OBJECT_NAME": "STARLINK-35936", "OBJECT_ID": "2025-271D", "EPOCH": "2025-12-19T22:47:58.481952", "MEAN_MOTION": 15.45204148, "ECCENTRICITY": 0.0001217, "INCLINATION": 53.1593, "RA_OF_ASC_NODE": 152.7719, "ARG_OF_PERICENTER": 60.4895, "MEAN_ANOMALY": 299.6234, "EPHEMERIS_TYPE": 0, "CLASSIFICATION_TYPE": "U", "NORAD_CAT_ID": 66620, "ELEMENT_SET_NO": 999, "REV_AT_EPOCH": 532, "BSTAR": -0.0084825, "MEAN_MOTION_DOT": -0.00389636, "MEAN_MOTION_DDOT": 0}, "tle": {"line1": "1 66620U 25271D   25353.94998243 -.00389636  00000+0 -84825-2 0  9998", "line2": "2 66620  53.1593 152.7719 0001217  60.4895 299.6234 15.45204148  5322"}}, "geometry": {"type": "Point", "coordinates": [-51.09660024650131, 21.279442183744663]}}, {"type": "Feature", "properties": {"norad_id": 66621, "name": "STARLINK-35847", "group": "last-30-days", "lat": -31.808266528692144, "lon": -6.550988514395562, "alt_km": 432.16642290562413, "timestamp": "2025-12-21T09:37:21.370588+00:00", "meta": {"OBJECT_NAME": "STARLINK-35847", "OBJECT_ID": "2025-271E", "EPOCH": "2025-12-19T22:32:40.837056", "MEAN_MOTION": 15.4673989, "ECCENTRICITY": 5.74e-05, "INCLINATION": 53.1594, "RA_OF_ASC_NODE": 152.6978, "ARG_OF_PERICENTER": 182.8412, "MEAN_ANOMALY": 177.2593, "EPHEMERIS_TYPE": 0, "CLASSIFICATION_TYPE": "U", "NORAD_CAT_ID": 66621, "ELEMENT_SET_NO": 999, "REV_AT_EPOCH": 532, "BSTAR": -0.0053109, "MEAN_MOTION_DOT": -0.00261578, "MEAN_MOTION_DDOT": 0}, "tle": {"line1": "1 66621U 25271E   25353.93936154 -.00261578  00000+0 -53109-2 0  9996", "line2": "2 66621  53.1594 152.6978 0000574 182.8412 177.2593 15.46739890  5326"}}, "geometry": {"type": "Point", "coordinates": [-6.550988514395562, -31.808266528692144]}}, {"type": "Feature", "properties": {"norad_id": 66622, "name": "STARLINK-35950", "group": "last-30-days", "lat": 43.97384583003938, "lon": -167.60268663532295, "alt_km": 440.64765897604593, "timestamp": "2025-12-21T09:37:21.370599+00:00", "meta": {"OBJECT_NAME": "STARLINK-35950", "OBJECT_ID": "2025-271F", "EPOCH": "2025-12-21T04:00:01.998720", "MEAN_MOTION": 15.39612868, "ECCENTRICITY": 0.0001164, "INCLINATION": 53.1595, "RA_OF_ASC_NODE": 147.1701, "ARG_OF_PERICENTER": 78.5985, "MEAN_ANOMALY": 122.5553, "EPHEMERIS_TYPE": 0, "CLASSIFICATION_TYPE": "U", "NORAD_CAT_ID": 66622, "ELEMENT_SET_NO": 999, "REV_AT_EPOCH": 559, "BSTAR": 0.00022164, "MEAN_MOTION_DOT": 8.474e-05, "MEAN_MOTION_DDOT": 0}, "tle": {"line1": "1 66622U 25271F   25355.16668980  .00008474  00000+0  22164-3 0  9993", "line2": "2 66622  53.1595 147.1701 0001164  78.5985 122.5553 15.39612868  5598"}}, "geometry": {"type": "Point", "coordinates": [-167.60268663532295, 43.97384583003938]}}, {"type": "Feature", "properties": {"norad_id": 66623, "name": "STARLINK-35920", "group": "last-30-days", "lat": 6.944828849583759, "lon": 151.40637892822676, "alt_km": 447.0660331275485, "timestamp": "2025-12-21T09:37:21.370613+00:00", "meta": {"OBJECT_NAME": "STARLINK-35920", "OBJECT_ID": "2025-271G", "EPOCH": "2025-12-21T03:21:11.947104", "MEAN_MOTION": 15.39639229, "ECCENTRICITY": 3.7e-05, "INCLINATION": 53.1604, "RA_OF_ASC_NODE": 147.3981, "ARG_OF_PERICENTER": 94.5229, "MEAN_ANOMALY": 265.5818, "EPHEMERIS_TYPE": 0, "CLASSIFICATION_TYPE": "U", "NORAD_CAT_ID": 66623, "ELEMENT_SET_NO": 999, "REV_AT_EPOCH": 550, "BSTAR": 0.00074533, "MEAN_MOTION_DOT": 0.00029548, "MEAN_MOTION_DDOT": 0}, "tle": {"line1": "1 66623U 25271G   25355.13972161  .00029548  00000+0  74533-3 0  9992", "line2": "2 66623  53.1604 147.3981 0000370  94.5229 265.5818 15.39639229  5502"}}, "geometry": {"type": "Point", "coordinates": [151.40637892822676, 6.944828849583759]}}]}